[{"OBJECT_NAME":"STARLINK-4141","OBJECT_ID":"2022-083G","EPOCH":"2026-03-09T14:28:53.151744","MEAN_MOTION":15.08827996,"ECCENTRICITY":0.0001298,"INCLINATION":53.2178,"RA_OF_ASC_NODE":169.69,"ARG_OF_PERICENTER":88.4407,"MEAN_ANOMALY":271.6733,"EPHEMERIS_TYPE":0,"CLASSIFICATION_TYPE":"U","NORAD_CAT_ID":53138,"ELEMENT_SET_NO":999,"REV_AT_EPOCH":20204,"BSTAR":0.00013861,"MEAN_MOTION_DOT":1.918e-5,"MEAN_MOTION_DDOT":0},{"OBJECT_NAME":"COSMOS 2251 DEB","OBJECT_ID":"1993-036SV","EPOCH":"2026-03-09T21:55:42.811680","MEAN_MOTION":15.15006345,"ECCENTRICITY":0.00579573,"INCLINATION":74.0283,"RA_OF_ASC_NODE":1.8812,"ARG_OF_PERICENTER":55.6817,"MEAN_ANOMALY":304.9843,"EPHEMERIS_TYPE":0,"CLASSIFICATION_TYPE":"U","NORAD_CAT_ID":34452,"ELEMENT_SET_NO":999,"REV_AT_EPOCH":91981,"BSTAR":0.0011020825,"MEAN_MOTION_DOT":0.00021495,"MEAN_MOTION_DDOT":0}]
